HST                     
1 20580U 90037B   26178.24823549  .00007152  00000+0  22534-3 0  9998
2 20580  28.4733  11.8084 0001398 264.2756  95.7680 15.30861955790115
POLAR                   
1 23802U 96013A   26176.50959110  .00000140  00000+0  00000+0 0  9999
2 23802  79.8647 226.9545 6478686 208.7930  90.3879  1.29846072144975
SWAS                    
1 25560U 98071A   26178.21965046  .00002575  00000+0  16598-3 0  9990
2 25560  69.8943 201.6459 0008747 249.7815 110.2409 15.09671397498789
CXO                     
1 25867U 99040B   26179.95532601  .00000592  00000+0  00000+0 0  9990
2 25867  56.3077 116.3625 7815439 310.1470   0.3486  0.37796038 17366
XMM-NEWTON              
1 25989U 99066A   26179.31942051  .00000041  00000+0  00000+0 0  9996
2 25989  64.4273 282.8431 4670867  64.6865   0.1170  0.50127671 23061
TERRA                   
1 25994U 99068A   26178.21812455  .00000377  00000+0  85739-4 0  9995
2 25994  97.9451 227.3665 0002375 160.9536 243.0874 14.61110552411071
CLUSTER II-FM7 (SAMBA)  
1 26410U 00041A   26179.29571931  .00010019  00000+0  00000+0 0  9999
2 26410 149.8957  52.7269 9065028 270.0741 359.5894  0.44873944 20367
CLUSTER II-FM8 (TANGO)  
1 26464U 00045B   26175.19428720  .00005465  00000+0  00000+0 0  9993
2 26464 150.1276  53.1676 9064570 270.3044   2.6399  0.44426562 20346
ODIN                    
1 26702U 01007A   26178.11710016  .00233497  00000+0  12556-2 0  9994
2 26702  97.3804 219.7209 0006020 134.5715 225.6045 15.79565011390965
TIMED                   
1 26998U 01055B   26178.24457025  .00000948  00000+0  89618-4 0  9994
2 26998  74.0664 214.7679 0001622 322.0563  38.0507 14.95312007332329
CORIOLIS                
1 27640U 03001A   26178.27367818  .00000111  00000+0  72713-4 0  9995
2 27640  98.7127 185.0044 0013961 179.0220 181.0986 14.19947470215656
SORCE                   
1 27651U 03004A   26178.23430700  .00002542  00000+0  19234-3 0  9995
2 27651  39.9888 204.3528 0016373 126.8525 233.3773 15.03756933273418
MOST                    
1 27843U 03031D   26178.27801740  .00000073  00000+0  53361-4 0  9995
2 27843  98.7044 185.8631 0009080 218.0161 142.0377 14.21324472192147
SCISAT 1                
1 27858U 03036A   26178.28752321  .00000620  00000+0  83840-4 0  9990
2 27858  73.9290 151.2748 0008211 221.3916 138.6639 14.81458428232947
SWIFT                   
1 28485U 04047A   26178.17024518  .00060198  00000+0  48202-3 0  9996
2 28485  20.5519 107.8365 0001321  76.6381 283.4212 15.69267303188437
HINODE (SOLAR-B)        
1 29479U 06041A   26177.99632515  .00000688  00000+0  12664-3 0  9998
2 29479  98.0544 194.0043 0015985 255.7906 104.1523 14.68635413 56318
SHIJIAN-6 02A (SJ-6 02A)
1 29505U 06046A   26178.31565045  .00005707  00000+0  29179-3 0  9999
2 29505  97.6362 219.4581 0004694 102.2960 257.8799 15.17055868 73800
SHIJIAN-6 02B (SJ-6 02B)
1 29506U 06046B   26178.34331187  .00001817  00000+0  14531-3 0  9995
2 29506  97.7160 207.3397 0015251  31.9368 328.2777 15.01402136 72265
FGRST (GLAST)           
1 33053U 08029A   26178.24666332  .00002915  00000+0  10340-3 0  9996
2 33053  25.5810 134.6279 0008528  85.7083 274.4430 15.23986907997372
SDO                     
1 36395U 10005A   26178.19136469 -.00000095  00000+0  00000+0 0  9998
2 36395  34.6718  86.1902 0001543  47.5702 108.2410  1.00270707 60164
CRYOSAT 2               
1 36508U 10013A   26178.28168382  .00000117  00000+0  28311-4 0  9996
2 36508  92.0360 279.7553 0002134  94.7448 265.4003 14.51902322859548
X-SAT                   
1 37389U 11015C   26178.26487958  .00000338  00000+0  16142-3 0  9991
2 37389  98.3508 154.8082 0013269 318.1625  41.8540 14.25210049789116
GCOM-W1 (SHIZUKU)       
1 38337U 12025A   26178.27697756  .00000449  00000+0  10967-3 0  9999
2 38337  98.2022 118.6799 0001626  69.3064  57.6444 14.57133401750509
NUSTAR                  
1 38358U 12031A   26178.33335648  .00008101  00000+0  44510-3 0  9999
2 38358   6.0278 318.0479 0008911 263.0424   8.5378 15.08898207  1307
NEOSSAT                 
1 39089U 13009D   26178.24436625  .00000150  00000+0  66690-4 0  9994
2 39089  98.4180 358.0380 0010335 211.1204 148.9372 14.35829811698189
BRITE-AUSTRIA           
1 39091U 13009F   26178.23798892  .00000171  00000+0  72731-4 0  9999
2 39091  98.3998 357.4250 0009645 203.9103 156.1637 14.36545799698496
IRIS                    
1 39197U 13033A   26178.13129826  .00001023  00000+0  12321-3 0  9992
2 39197  97.9325  17.3771 0023030 287.6559  72.2141 14.85903528701855
HISAKI (SPRINT-A)       
1 39253U 13049A   26178.29256302  .00000106  00000+0  58175-4 0  9998
2 39253  29.7172 168.6327 0136857  98.7813 262.8284 13.55545567632796
CASSIOPE                
1 39265U 13055A   26178.26213213  .00049935 -31182-6  54146-3 0  9998
2 39265  80.9148  54.4796 0288744  28.5702 333.1010 15.26128499669200
STSAT-3                 
1 39422U 13066G   26178.23368325  .00003475  00000+0  26383-3 0  9995
2 39422  97.6216 147.9604 0010225  16.7315 343.4245 15.02811560685718
SWARM B                 
1 39451U 13067A   26178.21558842  .00003568  00000+0  12704-3 0  9996
2 39451  87.7440 339.2693 0003013  81.7828 278.3763 15.28610901684771
